[{"OBJECT_NAME":"STARLINK-3783","OBJECT_ID":"2022-041X","EPOCH":"2025-08-14T12:25:19.092576","MEAN_MOTION":15.08837044,"ECCENTRICITY":0.0001332,"INCLINATION":53.218,"RA_OF_ASC_NODE":309.1549,"ARG_OF_PERICENTER":91.0592,"MEAN_ANOMALY":269.0553,"EPHEMERIS_TYPE":0,"CLASSIFICATION_TYPE":"U","NORAD_CAT_ID":52282,"ELEMENT_SET_NO":999,"REV_AT_EPOCH":18322,"BSTAR":3.7433e-5,"MEAN_MOTION_DOT":3.08e-6,"MEAN_MOTION_DDOT":0},{"OBJECT_NAME":"STARLINK-3789","OBJECT_ID":"2022-041Y","EPOCH":"2025-08-14T12:45:11.083392","MEAN_MOTION":15.08840402,"ECCENTRICITY":0.0001086,"INCLINATION":53.218,"RA_OF_ASC_NODE":319.0914,"ARG_OF_PERICENTER":88.7623,"MEAN_ANOMALY":271.3493,"EPHEMERIS_TYPE":0,"CLASSIFICATION_TYPE":"U","NORAD_CAT_ID":52283,"ELEMENT_SET_NO":999,"REV_AT_EPOCH":18309,"BSTAR":6.4162e-5,"MEAN_MOTION_DOT":7.34e-6,"MEAN_MOTION_DDOT":0},{"OBJECT_NAME":"STARLINK-3561","OBJECT_ID":"2022-041Z","EPOCH":"2025-08-14T12:14:43.353600","MEAN_MOTION":15.08843893,"ECCENTRICITY":0.0001124,"INCLINATION":53.2177,"RA_OF_ASC_NODE":309.1863,"ARG_OF_PERICENTER":91.5149,"MEAN_ANOMALY":268.5971,"EPHEMERIS_TYPE":0,"CLASSIFICATION_TYPE":"U","NORAD_CAT_ID":52284,"ELEMENT_SET_NO":999,"REV_AT_EPOCH":18322,"BSTAR":-1.7741e-5,"MEAN_MOTION_DOT":-5.7e-6,"MEAN_MOTION_DDOT":0},{"OBJECT_NAME":"STARLINK-3775","OBJECT_ID":"2022-041AA","EPOCH":"2025-08-14T09:23:27.685824","MEAN_MOTION":16.16259271,"ECCENTRICITY":0.000419,"INCLINATION":53.2099,"RA_OF_ASC_NODE":300.1562,"ARG_OF_PERICENTER":336.278,"MEAN_ANOMALY":121.2879,"EPHEMERIS_TYPE":0,"CLASSIFICATION_TYPE":"U","NORAD_CAT_ID":52285,"ELEMENT_SET_NO":999,"REV_AT_EPOCH":18455,"BSTAR":0.00065505,"MEAN_MOTION_DOT":0.00968048,"MEAN_MOTION_DDOT":0.00063056},{"OBJECT_NAME":"STARLINK-3802","OBJECT_ID":"2022-041AB","EPOCH":"2025-08-14T12:04:06.921696","MEAN_MOTION":15.08843869,"ECCENTRICITY":0.0001124,"INCLINATION":53.2184,"RA_OF_ASC_NODE":309.2195,"ARG_OF_PERICENTER":84.8902,"MEAN_ANOMALY":275.2219,"EPHEMERIS_TYPE":0,"CLASSIFICATION_TYPE":"U","NORAD_CAT_ID":52286,"ELEMENT_SET_NO":999,"REV_AT_EPOCH":18322,"BSTAR":5.5401e-5,"MEAN_MOTION_DOT":5.94e-6,"MEAN_MOTION_DDOT":0},{"OBJECT_NAME":"STARLINK-3822","OBJECT_ID":"2022-041AC","EPOCH":"2025-08-14T12:29:17.364768","MEAN_MOTION":15.0884115,"ECCENTRICITY":0.0001195,"INCLINATION":53.2187,"RA_OF_ASC_NODE":319.1402,"ARG_OF_PERICENTER":86.9827,"MEAN_ANOMALY":273.1302,"EPHEMERIS_TYPE":0,"CLASSIFICATION_TYPE":"U","NORAD_CAT_ID":52287,"ELEMENT_SET_NO":999,"REV_AT_EPOCH":18309,"BSTAR":5.883e-5,"MEAN_MOTION_DOT":6.49e-6,"MEAN_MOTION_DDOT":0},{"OBJECT_NAME":"STARLINK-3776","OBJECT_ID":"2022-041AD","EPOCH":"2025-08-14T11:58:49.166688","MEAN_MOTION":15.08840086,"ECCENTRICITY":0.0001287,"INCLINATION":53.2181,"RA_OF_ASC_NODE":309.2356,"ARG_OF_PERICENTER":88.7501,"MEAN_ANOMALY":271.3638,"EPHEMERIS_TYPE":0,"CLASSIFICATION_TYPE":"U","NORAD_CAT_ID":52288,"ELEMENT_SET_NO":999,"REV_AT_EPOCH":18322,"BSTAR":3.9006e-5,"MEAN_MOTION_DOT":3.33e-6,"MEAN_MOTION_DDOT":0},{"OBJECT_NAME":"STARLINK-3751","OBJECT_ID":"2022-041AE","EPOCH":"2025-08-14T12:20:01.372992","MEAN_MOTION":15.0884125,"ECCENTRICITY":0.0001138,"INCLINATION":53.2177,"RA_OF_ASC_NODE":309.1718,"ARG_OF_PERICENTER":87.9525,"MEAN_ANOMALY":272.1598,"EPHEMERIS_TYPE":0,"CLASSIFICATION_TYPE":"U","NORAD_CAT_ID":52289,"ELEMENT_SET_NO":999,"REV_AT_EPOCH":18322,"BSTAR":-1.2758e-5,"MEAN_MOTION_DOT":-4.91e-6,"MEAN_MOTION_DDOT":0},{"OBJECT_NAME":"STARLINK-3772","OBJECT_ID":"2022-041AF","EPOCH":"2025-08-14T11:44:18.379104","MEAN_MOTION":15.08840964,"ECCENTRICITY":0.0001235,"INCLINATION":53.2181,"RA_OF_ASC_NODE":309.2807,"ARG_OF_PERICENTER":92.797,"MEAN_ANOMALY":267.3163,"EPHEMERIS_TYPE":0,"CLASSIFICATION_TYPE":"U","NORAD_CAT_ID":52290,"ELEMENT_SET_NO":999,"REV_AT_EPOCH":18322,"BSTAR":0.00011198,"MEAN_MOTION_DOT":1.495e-5,"MEAN_MOTION_DDOT":0},{"OBJECT_NAME":"STARLINK-3773","OBJECT_ID":"2022-041AG","EPOCH":"2025-08-14T14:00:01.999872","MEAN_MOTION":15.93864806,"ECCENTRICITY":0.0007137,"INCLINATION":53.1827,"RA_OF_ASC_NODE":209.3325,"ARG_OF_PERICENTER":12.6676,"MEAN_ANOMALY":314.4792,"EPHEMERIS_TYPE":0,"CLASSIFICATION_TYPE":"U","NORAD_CAT_ID":52291,"ELEMENT_SET_NO":999,"REV_AT_EPOCH":606,"BSTAR":0.00076234,"MEAN_MOTION_DOT":0.00283082,"MEAN_MOTION_DDOT":4.198e-5},{"OBJECT_NAME":"STARLINK-3753","OBJECT_ID":"2022-041AH","EPOCH":"2025-08-14T11:37:37.426080","MEAN_MOTION":15.08838129,"ECCENTRICITY":0.0001276,"INCLINATION":53.2182,"RA_OF_ASC_NODE":309.3031,"ARG_OF_PERICENTER":81.1807,"MEAN_ANOMALY":278.9329,"EPHEMERIS_TYPE":0,"CLASSIFICATION_TYPE":"U","NORAD_CAT_ID":52292,"ELEMENT_SET_NO":999,"REV_AT_EPOCH":18322,"BSTAR":8.7727e-5,"MEAN_MOTION_DOT":1.109e-5,"MEAN_MOTION_DDOT":0},{"OBJECT_NAME":"STARLINK-3771","OBJECT_ID":"2022-041AJ","EPOCH":"2025-08-14T11:54:54.427392","MEAN_MOTION":15.08832146,"ECCENTRICITY":0.0001057,"INCLINATION":53.2178,"RA_OF_ASC_NODE":309.2569,"ARG_OF_PERICENTER":92.0118,"MEAN_ANOMALY":268.0995,"EPHEMERIS_TYPE":0,"CLASSIFICATION_TYPE":"U","NORAD_CAT_ID":52293,"ELEMENT_SET_NO":999,"REV_AT_EPOCH":18322,"BSTAR":-4.2207e-5,"MEAN_MOTION_DOT":-9.59e-6,"MEAN_MOTION_DDOT":0},{"OBJECT_NAME":"STARLINK-3777","OBJECT_ID":"2022-041AK","EPOCH":"2025-08-14T11:32:20.164416","MEAN_MOTION":15.08840909,"ECCENTRICITY":0.0001176,"INCLINATION":53.2184,"RA_OF_ASC_NODE":309.3197,"ARG_OF_PERICENTER":84.0282,"MEAN_ANOMALY":276.0844,"EPHEMERIS_TYPE":0,"CLASSIFICATION_TYPE":"U","NORAD_CAT_ID":52294,"ELEMENT_SET_NO":999,"REV_AT_EPOCH":18322,"BSTAR":-1.9755e-5,"MEAN_MOTION_DOT":-6.02e-6,"MEAN_MOTION_DDOT":0},{"OBJECT_NAME":"STARLINK-3765","OBJECT_ID":"2022-041AL","EPOCH":"2025-08-14T11:48:13.603968","MEAN_MOTION":15.08844396,"ECCENTRICITY":0.0001054,"INCLINATION":53.2181,"RA_OF_ASC_NODE":309.2663,"ARG_OF_PERICENTER":94.5887,"MEAN_ANOMALY":265.5226,"EPHEMERIS_TYPE":0,"CLASSIFICATION_TYPE":"U","NORAD_CAT_ID":52295,"ELEMENT_SET_NO":999,"REV_AT_EPOCH":18322,"BSTAR":-4.8779e-5,"MEAN_MOTION_DOT":-1.064e-5,"MEAN_MOTION_DDOT":0},{"OBJECT_NAME":"STARLINK-3766","OBJECT_ID":"2022-041AM","EPOCH":"2025-08-14T12:51:48.787776","MEAN_MOTION":15.08838032,"ECCENTRICITY":0.0001356,"INCLINATION":53.2185,"RA_OF_ASC_NODE":309.0737,"ARG_OF_PERICENTER":90.4469,"MEAN_ANOMALY":269.6678,"EPHEMERIS_TYPE":0,"CLASSIFICATION_TYPE":"U","NORAD_CAT_ID":52296,"ELEMENT_SET_NO":999,"REV_AT_EPOCH":18323,"BSTAR":5.2548e-5,"MEAN_MOTION_DOT":5.48e-6,"MEAN_MOTION_DDOT":0},{"OBJECT_NAME":"STARLINK-3758","OBJECT_ID":"2022-041AN","EPOCH":"2025-08-14T11:42:55.772064","MEAN_MOTION":15.08836113,"ECCENTRICITY":0.0001146,"INCLINATION":53.218,"RA_OF_ASC_NODE":309.2862,"ARG_OF_PERICENTER":86.8609,"MEAN_ANOMALY":273.2514,"EPHEMERIS_TYPE":0,"CLASSIFICATION_TYPE":"U","NORAD_CAT_ID":52297,"ELEMENT_SET_NO":999,"REV_AT_EPOCH":18322,"BSTAR":4.0238e-5,"MEAN_MOTION_DOT":3.53e-6,"MEAN_MOTION_DDOT":0}]
