STARLINK-3783           
1 52282U 22041X   25226.51758209  .00000308  00000+0  37433-4 0  9996
2 52282  53.2180 309.1549 0001332  91.0592 269.0553 15.08837044183222
STARLINK-3789           
1 52283U 22041Y   25226.53137828  .00000734  00000+0  64162-4 0  9999
2 52283  53.2180 319.0914 0001086  88.7623 271.3493 15.08840402183099
STARLINK-3561           
1 52284U 22041Z   25226.51022400 -.00000570  00000+0 -17741-4 0  9998
2 52284  53.2177 309.1863 0001124  91.5149 268.5971 15.08843893183228
STARLINK-3775           
1 52285U 22041AA  25226.39129266  .00968048  63056-3  65505-3 0  9998
2 52285  53.2099 300.1562 0004190 336.2780 121.2879 16.16259271184555
STARLINK-3802           
1 52286U 22041AB  25226.50285789  .00000594  00000+0  55401-4 0  9999
2 52286  53.2184 309.2195 0001124  84.8902 275.2219 15.08843869183222
STARLINK-3822           
1 52287U 22041AC  25226.52033987  .00000649  00000+0  58830-4 0  9993
2 52287  53.2187 319.1402 0001195  86.9827 273.1302 15.08841150183090
STARLINK-3776           
1 52288U 22041AD  25226.49918017  .00000333  00000+0  39006-4 0  9990
2 52288  53.2181 309.2356 0001287  88.7501 271.3638 15.08840086183228
STARLINK-3751           
1 52289U 22041AE  25226.51390478 -.00000491  00000+0 -12758-4 0  9991
2 52289  53.2177 309.1718 0001138  87.9525 272.1598 15.08841250183225
STARLINK-3772           
1 52290U 22041AF  25226.48910161  .00001495  00000+0  11198-3 0  9995
2 52290  53.2181 309.2807 0001235  92.7970 267.3163 15.08840964183223
STARLINK-3773           
1 52291U 22041AG  25226.58335648  .00283082  41980-4  76234-3 0  9991
2 52291  53.1827 209.3325 0007137  12.6676 314.4792 15.93864806  6069
STARLINK-3753           
1 52292U 22041AH  25226.48446095  .00001109  00000+0  87727-4 0  9991
2 52292  53.2182 309.3031 0001276  81.1807 278.9329 15.08838129183224
STARLINK-3771           
1 52293U 22041AJ  25226.49646328 -.00000959  00000+0 -42207-4 0  9992
2 52293  53.2178 309.2569 0001057  92.0118 268.0995 15.08832146183220
STARLINK-3777           
1 52294U 22041AK  25226.48078894 -.00000602  00000+0 -19755-4 0  9996
2 52294  53.2184 309.3197 0001176  84.0282 276.0844 15.08840909183229
STARLINK-3765           
1 52295U 22041AL  25226.49182412 -.00001064  00000+0 -48779-4 0  9991
2 52295  53.2181 309.2663 0001054  94.5887 265.5226 15.08844396183227
STARLINK-3766           
1 52296U 22041AM  25226.53598134  .00000548  00000+0  52548-4 0  9992
2 52296  53.2185 309.0737 0001356  90.4469 269.6678 15.08838032183235
STARLINK-3758           
1 52297U 22041AN  25226.48814551  .00000353  00000+0  40238-4 0  9998
2 52297  53.2180 309.2862 0001146  86.8609 273.2514 15.08836113183221
